H1 CPF 01  gfz 2021 05 01 12  6212 terrasarx 
H2 0702601  6201 31698    2021 05 01 12 59 42 2021 05 06 00 00 42   120 1 1  0 0 0
H9
10 0 59337  72702.000000  0   -1777378.300   2117037.132  -6316516.110
10 0 59337  72822.000000  0   -1015669.587   1693396.482  -6606221.672
10 0 59337  72942.000000  0    -244152.720   1227006.544  -6780673.507
10 0 59337  73062.000000  0     523128.804    725905.482  -6836871.314
10 0 59337  73182.000000  0    1272359.083    198967.245  -6773849.779
10 0 59337  73302.000000  0    1990194.156   -344252.582  -6592693.721
10 0 59337  73422.000000  0    2663993.742   -893685.646  -6296520.438
10 0 59337  73542.000000  0    3282040.436  -1438932.578  -5890432.246
10 0 59337  73662.000000  0    3833741.865  -1969454.476  -5381437.387
10 0 59337  73782.000000  0    4309815.073  -2474773.692  -4778341.151
10 0 59337  73902.000000  0    4702447.712  -2944679.989  -4091603.946
10 0 59337  74022.000000  0    5005432.567  -3369436.551  -3333169.897
10 0 59337  74142.000000  0    5214274.342  -3739982.480  -2516267.371
10 0 59337  74262.000000  0    5326264.878  -4048127.482  -1655182.273
10 0 59337  74382.000000  0    5340523.411  -4286733.328   -765008.836
10 0 59337  74502.000000  0    5258001.099  -4449878.123    138618.088
10 0 59337  74622.000000  0    5081448.458  -4532998.973   1039804.104
10 0 59337  74742.000000  0    4815345.178  -4533007.268   1922683.769
10 0 59337  74862.000000  0    4465795.004  -4448374.101   2771708.840
10 0 59337  74982.000000  0    4040388.912  -4279183.632   3571929.731
10 0 59337  75102.000000  0    3548039.641  -4027154.390   4309265.002
10 0 59337  75222.000000  0    2998790.928  -3695626.681   4970753.173
10 0 59337  75342.000000  0    2403608.083  -3289516.520   5544780.652
10 0 59337  75462.000000  0    1774154.911  -2815238.984   6021283.963
10 0 59337  75582.000000  0    1122560.664  -2280601.434   6391921.269
10 0 59337  75702.000000  0     461183.936  -1694670.955   6650212.061
10 0 59337  75822.000000  0    -197622.882  -1067617.809   6791644.341
10 0 59337  75942.000000  0    -841743.628   -410536.936   6813748.558
10 0 59337  76062.000000  0   -1459520.064    264748.684   6716137.637
10 0 59337  76182.000000  0   -2039962.130    945900.259   6500513.384
10 0 59337  76302.000000  0   -2572943.177   1620287.713   6170638.753
10 0 59337  76422.000000  0   -3049377.453   2275223.009   5732276.452
10 0 59337  76542.000000  0   -3461377.426   2898199.361   5193094.917
10 0 59337  76662.000000  0   -3802388.604   3477132.199   4562540.224
10 0 59337  76782.000000  0   -4067298.587   4000596.770   3851676.006
10 0 59337  76902.000000  0   -4252518.025   4458058.717   3072993.159
10 0 59337  77022.000000  0   -4356031.305   4840091.791   2240190.684
10 0 59337  77142.000000  0   -4377414.410   5138576.513   1367931.770
10 0 59337  77262.000000  0   -4317821.081   5346874.881    471580.797
10 0 59337  77382.000000  0   -4179937.593   5459977.803   -433073.996
10 0 59337  77502.000000  0   -3967905.373   5474621.615  -1330108.433
10 0 59337  77622.000000  0   -3687213.063   5389366.575  -2203753.476
10 0 59337  77742.000000  0   -3344561.504   5204638.796  -3038679.407
10 0 59337  77862.000000  0   -2947706.368   4922734.425  -3820270.174
10 0 59337  77982.000000  0   -2505282.742   4547785.129  -4534879.833
10 0 59337  78102.000000  0   -2026616.305   4085688.764  -5170066.719
10 0 59337  78222.000000  0   -1521526.819   3544008.717  -5714802.344
10 0 59337  78342.000000  0   -1000127.357   2931842.606  -6159654.776
10 0 59337  78462.000000  0    -472622.882   2259662.479  -6496941.526
10 0 59337  78582.000000  0      50886.743   1539132.205  -6720850.083
10 0 59337  78702.000000  0     560595.298    782905.207  -6827528.165
10 0 59337  78822.000000  0    1047169.582      4405.521  -6815143.530
10 0 59337  78942.000000  0    1501916.576   -782406.341  -6683911.562
10 0 59337  79062.000000  0    1916934.410  -1563277.644  -6436090.439
10 0 59337  79182.000000  0    2285247.008  -2323914.653  -6075946.727
10 0 59337  79302.000000  0    2600920.534  -3050238.389  -5609690.640
10 0 59337  79422.000000  0    2859160.600  -3728644.131  -5045380.976
10 0 59337  79542.000000  0    3056387.317  -4346257.851  -4392794.920
10 0 59337  79662.000000  0    3190285.626  -4891181.923  -3663268.494
10 0 59337  79782.000000  0    3259832.299  -5352730.056  -2869510.530
10 0 59337  79902.000000  0    3265297.459  -5721646.278  -2025387.387
10 0 59337  80022.000000  0    3208219.864  -5990298.988  -1145682.604
10 0 59337  80142.000000  0    3091356.182  -6152847.389   -245836.172
10 0 59337  80262.000000  0    2918603.852  -6205373.375    658332.735
10 0 59337  80382.000000  0    2694900.208  -6145975.772   1550910.556
10 0 59337  80502.000000  0    2426100.881  -5974825.484   2416179.413
10 0 59337  80622.000000  0    2118838.561  -5694175.997   3238903.206
10 0 59337  80742.000000  0    1780367.559  -5308332.347   4004601.792
10 0 59337  80862.000000  0    1418397.878  -4823580.549   4699810.040
10 0 59337  80982.000000  0    1040923.908  -4248077.932   5312316.234
10 0 59337  81102.000000  0     656050.256  -3591707.569   5831377.155
10 0 59337  81222.000000  0     271818.991  -2865898.146   6247902.335
10 0 59337  81342.000000  0    -103956.486  -2083417.826   6554606.121
10 0 59337  81462.000000  0    -463848.008  -1258145.802   6746128.395
10 0 59337  81582.000000  0    -800957.751   -404824.519   6819123.764
10 0 59337  81702.000000  0   -1109049.219    461204.939   6772316.967
10 0 59337  81822.000000  0   -1382662.118   1324278.544   6606523.481
10 0 59337  81942.000000  0   -1617208.802   2168691.763   6324636.037
10 0 59337  82062.000000  0   -1809051.693   2978984.907   5931577.542
10 0 59337  82182.000000  0   -1955560.027   3740227.158   5434219.847
10 0 59337  82302.000000  0   -2055144.918   4438294.462   4841270.399
10 0 59337  82422.000000  0   -2107273.056   5060137.860   4163126.081
10 0 59337  82542.000000  0   -2112457.415   5594035.429   3411695.169
10 0 59337  82662.000000  0   -2072225.842   6029822.159   2600189.657
10 0 59337  82782.000000  0   -1989067.656   6359092.046   1742891.948
10 0 59337  82902.000000  0   -1866358.972   6575368.438    854899.537
10 0 59337  83022.000000  0   -1708268.385   6674237.270    -48147.029
10 0 59337  83142.000000  0   -1519646.269   6653440.172   -950347.499
10 0 59337  83262.000000  0   -1305899.484   6512925.126  -1835832.798
10 0 59337  83382.000000  0   -1072854.214   6254847.730  -2689054.659
10 0 59337  83502.000000  0    -826612.769   5883527.978  -3495062.957
10 0 59337  83622.000000  0    -573407.323   5405367.458  -4239768.664
10 0 59337  83742.000000  0    -319454.228   4828727.065  -4910189.023
10 0 59337  83862.000000  0     -70811.918   4163769.091  -5494668.698
10 0 59337  83982.000000  0     166754.603   3422267.968  -5983075.131
10 0 59337  84102.000000  0     387899.288   2617392.884  -6366964.216
10 0 59337  84222.000000  0     587807.564   1763468.998  -6639714.239
10 0 59337  84342.000000  0     762295.141    875722.586  -6796629.497
10 0 59337  84462.000000  0     907890.853    -29987.788  -6835012.714
10 0 59337  84582.000000  0    1021902.567   -937449.622  -6754206.215
10 0 59337  84702.000000  0    1102465.106  -1830379.903  -6555600.195
10 0 59337  84822.000000  0    1148570.118  -2692708.616  -6242611.064
10 0 59337  84942.000000  0    1160078.162  -3508861.927  -5820631.279
10 0 59337  85062.000000  0    1137710.770  -4264042.582  -5296946.299
10 0 59337  85182.000000  0    1083024.301  -4944498.697  -4680618.536
10 0 59337  85302.000000  0     998365.554  -5537778.383  -3982342.440
10 0 59337  85422.000000  0     886808.781  -6032966.356  -3214268.705
10 0 59337  85542.000000  0     752075.930  -6420895.334  -2389799.948
10 0 59337  85662.000000  0     598441.833  -6694328.404  -1523361.004
10 0 59337  85782.000000  0     430625.667  -6848106.716   -630145.931
10 0 59337  85902.000000  0     253671.207  -6879256.896    274152.527
10 0 59337  86022.000000  0      72819.100  -6787056.071   1173624.725
10 0 59337  86142.000000  0    -106625.631  -6573052.835   2052432.254
10 0 59337  86262.000000  0    -279427.643  -6241042.147   2895096.725
10 0 59337  86382.000000  0    -440553.090  -5796993.073   3686781.970
10 0 59338    102.000000  0    -585295.951  -5248932.168   4413559.841
10 0 59338    222.000000  0    -709395.945  -4606789.891   5062657.785
10 0 59338    342.000000  0    -809144.494  -3882210.772   5622683.250
10 0 59338    462.000000  0    -881477.022  -3088332.629   6083822.138
10 0 59338    582.000000  0    -924049.287  -2239538.462   6438005.273
10 0 59338    702.000000  0    -935296.101  -1351190.926   6679041.562
10 0 59338    822.000000  0    -914472.273   -439352.434   6802721.030
10 0 59338    942.000000  0    -861675.535    479506.580   6806884.404
10 0 59338   1062.000000  0    -777849.345   1388804.911   6691458.568
10 0 59338   1182.000000  0    -664765.597   2272149.319   6458457.753
10 0 59338   1302.000000  0    -524988.299   3113629.656   6111950.545
10 0 59338   1422.000000  0    -361818.976   3898106.403   5657993.452
10 0 59338   1542.000000  0    -179224.581   4611486.135   5104530.262
10 0 59338   1662.000000  0      18251.354   5240980.205   4461259.939
10 0 59338   1782.000000  0     225592.703   5775342.903   3739470.448
10 0 59338   1902.000000  0     437426.851   6205078.513   2951844.943
10 0 59338   2022.000000  0     648151.414   6522625.606   2112242.289
10 0 59338   2142.000000  0     852070.086   6722499.407   1235445.865
10 0 59338   2262.000000  0    1043531.032   6801392.218    336897.613
10 0 59338   2382.000000  0    1217066.858   6758230.987   -567581.727
10 0 59338   2502.000000  0    1367530.924   6594189.913  -1462079.793
10 0 59338   2622.000000  0    1490226.694   6312658.384  -2330880.112
10 0 59338   2742.000000  0    1581027.430   5919165.512  -3158744.884
99
